start=new Date('2023-06-16T00:00:00.000Z').valueOf();
sats=[{"CENTER_NAME":"EARTH","APOAPSIS":"548.081","SITE":"AFETR","TLE_LINE2":"2 48402  53.0540 143.9154 0001216  93.2614 266.8514 15.06391665116810","EPHEMERIS_TYPE":"0","RA_OF_ASC_NODE":"143.9154","MEAN_MOTION":"15.06391665","OBJECT_TYPE":"PAYLOAD","BSTAR":"0.00005154800000","SEMIMAJOR_AXIS":"6925.374","OBJECT_ID":"2021-038BB","GP_ID":"233986151","PERIOD":"95.593","MEAN_MOTION_DOT":"0.00000486","INCLINATION":"53.0540","CLASSIFICATION_TYPE":"U","OBJECT_NAME":"STARLINK-2560","ECCENTRICITY":"0.00012160","PERIAPSIS":"546.397","REV_AT_EPOCH":"11681","ELEMENT_SET_NO":"999","ARG_OF_PERICENTER":"93.2614","REF_FRAME":"TEME","TIME_SYSTEM":"UTC","TLE_LINE1":"1 48402U 21038BB  23166.21853399  .00000486  00000-0  51548-4 0  9995","NORAD_CAT_ID":"48402","MEAN_MOTION_DDOT":"0.0000000000000","RCS_SIZE":"LARGE","COUNTRY_CODE":"US","MEAN_ANOMALY":"266.8514","MEAN_ELEMENT_THEORY":"SGP4","DECAY_DATE":null,"LAUNCH_DATE":"2021-05-04","EPOCH":"2023-06-15T05:14:41.336736","FILE":"3933820"},{"SITE":"AFETR","CENTER_NAME":"EARTH","APOAPSIS":"547.992","RA_OF_ASC_NODE":"143.3455","MEAN_MOTION":"15.06392972","TLE_LINE2":"2 48403  53.0555 143.3455 0001093  92.5524 267.5590 15.06392972116836","EPHEMERIS_TYPE":"0","SEMIMAJOR_AXIS":"6925.370","OBJECT_TYPE":"PAYLOAD","BSTAR":"0.00002449200000","GP_ID":"233987403","OBJECT_ID":"2021-038BC","INCLINATION":"53.0555","MEAN_MOTION_DOT":"0.00000083","PERIOD":"95.593","OBJECT_NAME":"STARLINK-2561","ECCENTRICITY":"0.00010930","CLASSIFICATION_TYPE":"U","PERIAPSIS":"546.478","REV_AT_EPOCH":"11683","ELEMENT_SET_NO":"999","ARG_OF_PERICENTER":"92.5524","REF_FRAME":"TEME","TLE_LINE1":"1 48403U 21038BC  23166.34848692  .00000083  00000-0  24492-4 0  9991","TIME_SYSTEM":"UTC","MEAN_MOTION_DDOT":"0.0000000000000","RCS_SIZE":"LARGE","NORAD_CAT_ID":"48403","COUNTRY_CODE":"US","MEAN_ELEMENT_THEORY":"SGP4","MEAN_ANOMALY":"267.5590","EPOCH":"2023-06-15T08:21:49.269888","FILE":"3933820","LAUNCH_DATE":"2021-05-04","DECAY_DATE":null},{"APOAPSIS":"548.144","CENTER_NAME":"EARTH","SITE":"AFETR","TLE_LINE2":"2 48404  53.0539 143.9539 0001305  90.8978 269.2160 15.06391332116817","EPHEMERIS_TYPE":"0","MEAN_MOTION":"15.06391332","RA_OF_ASC_NODE":"143.9539","BSTAR":"0.00006236900000","OBJECT_TYPE":"PAYLOAD","SEMIMAJOR_AXIS":"6925.375","OBJECT_ID":"2021-038BD","GP_ID":"233987153","PERIOD":"95.593","MEAN_MOTION_DOT":"0.00000647","INCLINATION":"53.0539","CLASSIFICATION_TYPE":"U","OBJECT_NAME":"STARLINK-2593","ECCENTRICITY":"0.00013050","REV_AT_EPOCH":"11681","PERIAPSIS":"546.336","ARG_OF_PERICENTER":"90.8978","ELEMENT_SET_NO":"999","REF_FRAME":"TEME","TIME_SYSTEM":"UTC","TLE_LINE1":"1 48404U 21038BD  23166.21210870  .00000647  00000-0  62369-4 0  9990","NORAD_CAT_ID":"48404","MEAN_MOTION_DDOT":"0.0000000000000","RCS_SIZE":"LARGE","COUNTRY_CODE":"US","MEAN_ANOMALY":"269.2160","MEAN_ELEMENT_THEORY":"SGP4","DECAY_DATE":null,"LAUNCH_DATE":"2021-05-04","EPOCH":"2023-06-15T05:05:26.191680","FILE":"3933820"},{"TLE_LINE1":"1 48405U 21038BE  23166.20842163  .00000625  00000-0  60811-4 0  9992","TIME_SYSTEM":"UTC","REF_FRAME":"TEME","ARG_OF_PERICENTER":"76.0307","ELEMENT_SET_NO":"999","REV_AT_EPOCH":"11681","PERIAPSIS":"546.707","EPOCH":"2023-06-15T05:00:07.628832","FILE":"3933820","LAUNCH_DATE":"2021-05-04","DECAY_DATE":null,"MEAN_ELEMENT_THEORY":"SGP4","MEAN_ANOMALY":"284.0767","COUNTRY_CODE":"US","RCS_SIZE":"LARGE","MEAN_MOTION_DDOT":"0.0000000000000","NORAD_CAT_ID":"48405","SEMIMAJOR_AXIS":"6925.370","OBJECT_TYPE":"PAYLOAD","BSTAR":"0.00006081100000","MEAN_MOTION":"15.06393079","RA_OF_ASC_NODE":"143.9749","EPHEMERIS_TYPE":"0","TLE_LINE2":"2 48405  53.0530 143.9749 0000762  76.0307 284.0767 15.06393079116818","SITE":"AFETR","APOAPSIS":"547.762","CENTER_NAME":"EARTH","OBJECT_NAME":"STARLINK-2570","ECCENTRICITY":"0.00007620","CLASSIFICATION_TYPE":"U","MEAN_MOTION_DOT":"0.00000625","INCLINATION":"53.0530","PERIOD":"95.593","GP_ID":"233985901","OBJECT_ID":"2021-038BE"},{"MEAN_ANOMALY":"275.1977","MEAN_ELEMENT_THEORY":"SGP4","DECAY_DATE":null,"LAUNCH_DATE":"2021-05-04","FILE":"3933923","EPOCH":"2023-06-15T16:03:35.502624","NORAD_CAT_ID":"48406","MEAN_MOTION_DDOT":"0.0000000000000","RCS_SIZE":"LARGE","COUNTRY_CODE":"US","REF_FRAME":"TEME","TIME_SYSTEM":"UTC","TLE_LINE1":"1 48406U 21038BF  23166.66916091  .00001112  00000-0  93533-4 0  9994","PERIAPSIS":"546.316","REV_AT_EPOCH":"11747","ELEMENT_SET_NO":"999","ARG_OF_PERICENTER":"84.9160","CLASSIFICATION_TYPE":"U","OBJECT_NAME":"STARLINK-2568","ECCENTRICITY":"0.00013020","OBJECT_ID":"2021-038BF","GP_ID":"233994363","PERIOD":"95.592","INCLINATION":"53.0544","MEAN_MOTION_DOT":"0.00001112","EPHEMERIS_TYPE":"0","TLE_LINE2":"2 48406  53.0544 141.9048 0001302  84.9160 275.1977 15.06398773117473","RA_OF_ASC_NODE":"141.9048","MEAN_MOTION":"15.06398773","OBJECT_TYPE":"PAYLOAD","BSTAR":"0.00009353300000","SEMIMAJOR_AXIS":"6925.352","CENTER_NAME":"EARTH","APOAPSIS":"548.119","SITE":"AFETR"},{"PERIOD":"95.592","INCLINATION":"53.0544","MEAN_MOTION_DOT":"0.00001778","OBJECT_ID":"2021-038BG","GP_ID":"234019373","CLASSIFICATION_TYPE":"U","ECCENTRICITY":"0.00012670","OBJECT_NAME":"STARLINK-2595","APOAPSIS":"548.090","CENTER_NAME":"EARTH","SITE":"AFETR","OBJECT_TYPE":"PAYLOAD","BSTAR":"0.00013822000000","SEMIMAJOR_AXIS":"6925.348","TLE_LINE2":"2 48407  53.0544 141.9233 0001267  90.7940 269.3194 15.06400215116875","EPHEMERIS_TYPE":"0","MEAN_MOTION":"15.06400215","RA_OF_ASC_NODE":"141.9233","COUNTRY_CODE":"US","NORAD_CAT_ID":"48407","MEAN_MOTION_DDOT":"0.0000000000000","RCS_SIZE":"LARGE","DECAY_DATE":null,"LAUNCH_DATE":"2021-05-04","EPOCH":"2023-06-15T15:58:17.301792","FILE":"3934071","MEAN_ELEMENT_THEORY":"SGP4","MEAN_ANOMALY":"269.3194","ARG_OF_PERICENTER":"90.7940","ELEMENT_SET_NO":"999","REV_AT_EPOCH":"11687","PERIAPSIS":"546.335","TIME_SYSTEM":"UTC","TLE_LINE1":"1 48407U 21038BG  23166.66547803  .00001778  00000-0  13822-3 0  9996","REF_FRAME":"TEME"},{"OBJECT_TYPE":"PAYLOAD","BSTAR":"0.00011617000000","SEMIMAJOR_AXIS":"6925.349","TLE_LINE2":"2 48408  53.0539 141.9370 0001317  86.1724 273.9416 15.06399708116879","EPHEMERIS_TYPE":"0","MEAN_MOTION":"15.06399708","RA_OF_ASC_NODE":"141.9370","CENTER_NAME":"EARTH","APOAPSIS":"548.127","SITE":"AFETR","CLASSIFICATION_TYPE":"U","OBJECT_NAME":"STARLINK-2592","ECCENTRICITY":"0.00013170","PERIOD":"95.592","MEAN_MOTION_DOT":"0.00001449","INCLINATION":"53.0539","OBJECT_ID":"2021-038BH","GP_ID":"234020122","TIME_SYSTEM":"UTC","TLE_LINE1":"1 48408U 21038BH  23166.66179055  .00001449  00000-0  11617-3 0  9992","REF_FRAME":"TEME","ARG_OF_PERICENTER":"86.1724","ELEMENT_SET_NO":"999","REV_AT_EPOCH":"11687","PERIAPSIS":"546.302","DECAY_DATE":null,"LAUNCH_DATE":"2021-05-04","EPOCH":"2023-06-15T15:52:58.703520","FILE":"3934071","MEAN_ELEMENT_THEORY":"SGP4","MEAN_ANOMALY":"273.9416","COUNTRY_CODE":"US","NORAD_CAT_ID":"48408","MEAN_MOTION_DDOT":"0.0000000000000","RCS_SIZE":"LARGE"},{"ARG_OF_PERICENTER":"85.8160","ELEMENT_SET_NO":"999","REV_AT_EPOCH":"11740","PERIAPSIS":"546.316","TIME_SYSTEM":"UTC","TLE_LINE1":"1 48409U 21038BJ  23166.68528622  .00001035  00000-0  88340-4 0  9992","REF_FRAME":"TEME","COUNTRY_CODE":"US","NORAD_CAT_ID":"48409","RCS_SIZE":"LARGE","MEAN_MOTION_DDOT":"0.0000000000000","LAUNCH_DATE":"2021-05-04","DECAY_DATE":null,"EPOCH":"2023-06-15T16:26:48.729408","FILE":"3933973","MEAN_ELEMENT_THEORY":"SGP4","MEAN_ANOMALY":"274.2977","APOAPSIS":"548.115","CENTER_NAME":"EARTH","SITE":"AFETR","OBJECT_TYPE":"PAYLOAD","BSTAR":"0.00008834000000","SEMIMAJOR_AXIS":"6925.350","TLE_LINE2":"2 48409  53.0542 146.8315 0001299  85.8160 274.2977 15.06399383117401","EPHEMERIS_TYPE":"0","MEAN_MOTION":"15.06399383","RA_OF_ASC_NODE":"146.8315","PERIOD":"95.592","INCLINATION":"53.0542","MEAN_MOTION_DOT":"0.00001035","OBJECT_ID":"2021-038BJ","GP_ID":"233995553","CLASSIFICATION_TYPE":"U","OBJECT_NAME":"STARLINK-2596","ECCENTRICITY":"0.00012990"},{"ARG_OF_PERICENTER":"99.5120","ELEMENT_SET_NO":"999","REV_AT_EPOCH":"11754","PERIAPSIS":"546.150","TLE_LINE1":"1 48410U 21038BK  23166.82259120 -.00000767  00000-0 -32557-4 0  9996","TIME_SYSTEM":"UTC","REF_FRAME":"TEME","COUNTRY_CODE":"US","RCS_SIZE":"LARGE","MEAN_MOTION_DDOT":"0.0000000000000","NORAD_CAT_ID":"48410","FILE":"3934071","EPOCH":"2023-06-15T19:44:31.879680","DECAY_DATE":null,"LAUNCH_DATE":"2021-05-04","MEAN_ELEMENT_THEORY":"SGP4","MEAN_ANOMALY":"260.6036","SITE":"AFETR","CENTER_NAME":"EARTH","APOAPSIS":"548.193","SEMIMAJOR_AXIS":"6925.306","BSTAR":"-0.00003255700000","OBJECT_TYPE":"PAYLOAD","MEAN_MOTION":"15.06413873","RA_OF_ASC_NODE":"96.2143","EPHEMERIS_TYPE":"0","TLE_LINE2":"2 48410  53.0538  96.2143 0001475  99.5120 260.6036 15.06413873117540","MEAN_MOTION_DOT":"-0.00000767","INCLINATION":"53.0538","PERIOD":"95.591","GP_ID":"234018624","OBJECT_ID":"2021-038BK","ECCENTRICITY":"0.00014750","OBJECT_NAME":"STARLINK-2563","CLASSIFICATION_TYPE":"U"},{"COUNTRY_CODE":"US","MEAN_MOTION_DDOT":"0.0000000000000","RCS_SIZE":"LARGE","NORAD_CAT_ID":"48411","FILE":"3933820","EPOCH":"2023-06-15T05:49:14.213568","LAUNCH_DATE":"2021-05-04","DECAY_DATE":null,"MEAN_ANOMALY":"275.0946","MEAN_ELEMENT_THEORY":"SGP4","ARG_OF_PERICENTER":"85.0162","ELEMENT_SET_NO":"999","REV_AT_EPOCH":"11752","PERIAPSIS":"546.536","TLE_LINE1":"1 48411U 21038BL  23166.24252562  .00001171  00000-0  97524-4 0  9999","TIME_SYSTEM":"UTC","REF_FRAME":"TEME","MEAN_MOTION_DOT":"0.00001171","INCLINATION":"53.0536","PERIOD":"95.593","GP_ID":"233987404","OBJECT_ID":"2021-038BL","OBJECT_NAME":"STARLINK-2505","ECCENTRICITY":"0.00010440","CLASSIFICATION_TYPE":"U","SITE":"AFETR","APOAPSIS":"547.982","CENTER_NAME":"EARTH","SEMIMAJOR_AXIS":"6925.394","BSTAR":"0.00009752400000","OBJECT_TYPE":"PAYLOAD","MEAN_MOTION":"15.06385184","RA_OF_ASC_NODE":"93.8213","EPHEMERIS_TYPE":"0","TLE_LINE2":"2 48411  53.0536  93.8213 0001044  85.0162 275.0946 15.06385184117529"}];
